NORAD_CAT_ID,OBJECT_NAME,OBJECT_TYPE,EPOCH,MEAN_MOTION,ECCENTRICITY,INCLINATION,RA_OF_ASC_NODE,ARG_OF_PERICENTER,MEAN_ANOMALY,BSTAR,MEAN_MOTION_DOT,MEAN_MOTION_DDOT,TLE_LINE0,TLE_LINE1,TLE_LINE2,SEMIMAJOR_AXIS,PERIOD,APOGEE,PERIGEE,DECAYED
55270.0,STARLINK-5301,PAYLOAD,2023-01-24 16:00:00,15.94371539,0.0038555,69.9996,55.2049,163.8712,351.5584,-0.0022009,-0.00891248,0.00025024,0 STARLINK-5301,1 55270U 23010B   23024.66667824 -.00891248  25024-3 -22009-2 0  9996,2 55270  69.9996  55.2049 0038555 163.8712 351.5584 15.94371539  1300,6668.203,90.318,315.777,264.35900000000004,0.0
55270.0,STARLINK-5301,PAYLOAD,2023-01-25 14:00:01,15.92740756,0.0029484,69.9993,52.5359,166.0318,206.5032,-0.0025594,-0.00920513,0.00026123,0 STARLINK-5301,1 55270U 23010B   23025.58334491 -.00920513  26123-3 -25594-2 0  9990,2 55270  69.9993  52.5359 0029484 166.0318 206.5032 15.92740756  1305,6672.754,90.41,314.293,274.945,0.0
55270.0,STARLINK-5301,PAYLOAD,2023-01-25 16:00:01,15.92580054,0.0029063,69.9995,52.2937,166.0527,324.2024,-0.0025149,-0.00895945,0.00024807,0 STARLINK-5301,1 55270U 23010B   23025.66668981 -.00895945  24807-3 -25149-2 0  9996,2 55270  69.9995  52.2937 0029063 166.0527 324.2024 15.92580054  1459,6673.203,90.419,314.462,275.67400000000004,0.0
55270.0,STARLINK-5301,PAYLOAD,2023-01-25 22:00:00,15.921278400000002,0.0026548,69.9998,51.5672,166.6947,316.1768,-0.0025696,-0.00887979,0.00024289,0 STARLINK-5301,1 55270U 23010B   23025.91667824 -.00887979  24289-3 -25696-2 0  9998,2 55270  69.9998  51.5672 0026548 166.6947 316.1768 15.92127840  1306,6674.465999999999,90.445,314.051,278.612,0.0
55270.0,STARLINK-5301,PAYLOAD,2023-01-26 00:00:00,15.91992788,0.0026048,69.9998,51.3252,167.1402,73.1973,-0.0026811,-0.00918615,0.00025827,0 STARLINK-5301,1 55270U 23010B   23026.00001157 -.00918615  25827-3 -26811-2 0  9991,2 55270  69.9998  51.3252 0026048 167.1402  73.1973 15.91992788  1516,6674.844,90.453,314.095,279.322,0.0
55270.0,STARLINK-5301,PAYLOAD,2023-01-26 10:00:00,15.91235676,0.0022681999999999,70.0002,50.1158,168.9194,298.1034,-0.0027465,-0.00897881,0.00024571,0 STARLINK-5301,1 55270U 23010B   23026.41667824 -.00897881  24571-3 -27465-2 0  9997,2 55270  70.0002  50.1158 0022682 168.9194 298.1034 15.91235676  1573,6676.960999999999,90.496,313.971,283.681,0.0
55270.0,STARLINK-5301,PAYLOAD,2023-01-26 14:00:01,15.90948102,0.0020753,69.9996,49.6317,171.525,169.854,-0.00288,-0.00923892,0.00025831,0 STARLINK-5301,1 55270U 23010B   23026.58334491 -.00923892  25831-3 -28800-2 0  9992,2 55270  69.9996  49.6317 0020753 171.5250 169.8540 15.90948102  1303,6677.766,90.512,313.48900000000003,285.772,0.0
55270.0,STARLINK-5301,PAYLOAD,2023-01-26 18:00:00,15.90644307,0.001984,70.0,49.1487,172.5053,43.0551,-0.0028958,-0.00913102,0.00025198,0 STARLINK-5301,1 55270U 23010B   23026.75001157 -.00913102  25198-3 -28958-2 0  9994,2 55270  70.0000  49.1487 0019840 172.5053  43.0551 15.90644307  1633,6678.616,90.529,313.731,287.23,0.0
55270.0,STARLINK-5301,PAYLOAD,2023-01-27 02:00:01,15.9006145,0.001687,70.0002,48.183,176.87099999999998,146.5052,-0.003095,-0.00942442,0.00026565,0 STARLINK-5301,1 55270U 23010B   23027.08334491 -.00942442  26565-3 -30950-2 0  9994,2 55270  70.0002  48.1830 0016870 176.8710 146.5052 15.90061450  1685,6680.2480000000005,90.563,313.382,290.843,0.0
55270.0,STARLINK-5301,PAYLOAD,2023-01-27 08:00:01,15.8960874,0.0015352,70.0,47.459,179.2594,134.5149,-0.0031525,-0.0093619,0.00026123,0 STARLINK-5301,1 55270U 23010B   23027.33334491 -.00936190  26123-3 -31525-2 0  9994,2 55270  70.0000  47.4590 0015352 179.2594 134.5149 15.89608740  1725,6681.516,90.588,313.638,293.124,0.0
55270.0,STARLINK-5301,PAYLOAD,2023-01-27 14:00:01,15.89151766,0.0013373,69.9993,46.735,185.1283,118.6423,-0.0031781999999999,-0.00920156,0.00025188,0 STARLINK-5301,1 55270U 23010B   23027.58334491 -.00920156  25188-3 -31782-2 0  9991,2 55270  69.9993  46.7350 0013373 185.1283 118.6423 15.89151766  1304,6682.797,90.614,313.599,295.725,0.0
55270.0,STARLINK-5301,PAYLOAD,2023-01-27 16:00:00,15.89004552,0.0012828,69.9998,46.4946,186.9486,233.3944,-0.0032073,-0.0092117,0.00025203,0 STARLINK-5301,1 55270U 23010B   23027.66667824 -.00921170  25203-3 -32073-2 0  9998,2 55270  69.9998  46.4946 0012828 186.9486 233.3944 15.89004552  1779,6683.21,90.623,313.648,296.501,0.0
55270.0,STARLINK-5301,PAYLOAD,2023-01-27 22:00:00,15.88554231,0.0010983,70.0001,45.772,194.6001,215.1985,-0.003278,-0.009188,0.00024974,0 STARLINK-5301,1 55270U 23010B   23027.91667824 -.00918800  24974-3 -32780-2 0  9991,2 55270  70.0001  45.7720 0010983 194.6001 215.1985 15.88554231  1819,6684.473000000001,90.648,313.67900000000003,298.996,0.0
55270.0,STARLINK-5301,PAYLOAD,2023-01-28 14:00:01,15.87358947,0.0008616,69.9992,43.8462,222.5432,37.1627,-0.003489,-0.00841697,0.0,0 STARLINK-5301,1 55270U 23010B   23028.58334491 -.00841697  00000-0 -34890-2 0  9990,2 55270  69.9992  43.8462 0008616 222.5432  37.1627 15.87358947  1300,6687.828,90.717,315.455,303.931,0.0
55270.0,STARLINK-5301,PAYLOAD,2023-01-28 22:00:00,15.86764502,0.0008428,69.9999,42.8855,242.7925,120.7904,-0.0036281,-0.00849055,0.0,0 STARLINK-5301,1 55270U 23010B   23028.91667824 -.00849055  00000-0 -36281-2 0  9998,2 55270  69.9999  42.8855 0008428 242.7925 120.7904 15.86764502  1308,6689.498,90.751,317.001,305.725,0.0
55270.0,STARLINK-5301,PAYLOAD,2023-01-29 00:00:00,15.86602874,0.0008381,70.0002,42.6456,246.3784,233.0654,-0.0035494,-0.00826109,0.0,0 STARLINK-5301,1 55270U 23010B   23029.00001157 -.00826109  00000-0 -35494-2 0  9990,2 55270  70.0002  42.6456 0008381 246.3784 233.0654 15.86602874  1989,6689.952,90.76,317.424,306.21,0.0
55270.0,STARLINK-5301,PAYLOAD,2023-01-29 22:00:01,15.84953961,0.0007366,70.0001,40.0073,269.0804,41.9051,-0.0038099,-0.008182,0.0,0 STARLINK-5301,1 55270U 23010B   23029.91668981 -.00818200  00000-0 -38099-2 0  9991,2 55270  70.0001  40.0073 0007366 269.0804  41.9051 15.84953961  1309,6694.591,90.854,321.388,311.525,0.0
55270.0,STARLINK-5301,PAYLOAD,2023-01-30 00:00:00,15.84822997,0.0006771,70.0003,39.768,270.1094,156.1231,-0.0039981,-0.00849743,0.0,0 STARLINK-5301,1 55270U 23010B   23030.00001157 -.00849743  00000-0 -39981-2 0  9996,2 55270  70.0003  39.7680 0006771 270.1094 156.1231 15.84822997  2149,6694.96,90.862,321.358,312.292,0.0
55270.0,STARLINK-5301,PAYLOAD,2023-01-30 14:00:01,15.83783608,0.0005439,69.9994,38.0921,270.0172,242.1948,-0.0042592,-0.00859345,0.0,0 STARLINK-5301,1 55270U 23010B   23030.58334491 -.00859345  00000-0 -42592-2 0  9990,2 55270  69.9994  38.0921 0005439 270.0172 242.1948 15.83783608  1303,6697.889,90.922,323.397,316.111,0.0
55270.0,STARLINK-5301,PAYLOAD,2023-01-31 00:00:00,15.83021427,0.0003754,70.0001,36.8977,277.5005,89.074,-0.0042815,-0.00834533,0.0,0 STARLINK-5301,1 55270U 23010B   23031.00001157 -.00834533  00000-0 -42815-2 0  9998,2 55270  70.0001  36.8977 0003754 277.5005  89.0740 15.83021427  1309,6700.039,90.965,324.419,319.389,0.0
55270.0,STARLINK-5301,PAYLOAD,2023-01-31 02:00:01,15.82872847,0.0003592,70.0001,36.6585,279.5631,201.748,-0.0043184,-0.00835648,0.0,0 STARLINK-5301,1 55270U 23010B   23031.08334491 -.00835648  00000-0 -43184-2 0  9994,2 55270  70.0001  36.6585 0003592 279.5631 201.7480 15.82872847  2314,6700.458,90.974,324.73,319.916,0.0
55270.0,STARLINK-5301,PAYLOAD,2023-01-31 14:00:01,15.81986765,0.0003631,69.9993,35.226,270.9363,177.8512,-0.0045954,-0.00851444,0.0,0 STARLINK-5301,1 55270U 23010B   23031.58334491 -.00851444  00000-0 -45954-2 0  9998,2 55270  69.9993  35.2260 0003631 270.9363 177.8512 15.81986765  1308,6702.96,91.025,327.259,322.391,0.0
55270.0,STARLINK-5301,PAYLOAD,2023-01-31 22:00:00,15.81378687,0.0003461,69.9999,34.2732,271.4216,274.7945,-0.0046427,-0.00837421,0.0,0 STARLINK-5301,1 55270U 23010B   23031.91667824 -.00837421  00000-0 -46427-2 0  9999,2 55270  69.9999  34.2732 0003461 271.4216 274.7945 15.81378687  2453,6704.678,91.06,328.863,324.222,0.0
55270.0,STARLINK-5301,PAYLOAD,2023-02-01 14:00:01,15.80180614,0.0003636,69.9994,32.368,266.6511,112.263,-0.0048806,-0.0083338,0.0,0 STARLINK-5301,1 55270U 23010B   23032.58334491 -.00833380  00000-0 -48806-2 0  9997,2 55270  69.9994  32.3680 0003636 266.6511 112.2630 15.80180614  1307,6708.066,91.129,332.37,327.492,0.0
55270.0,STARLINK-5301,PAYLOAD,2023-02-01 22:00:00,15.79584415,0.0003511,70.0002,31.4174,271.0036,203.1826,-0.0050392,-0.00836876,0.0,0 STARLINK-5301,1 55270U 23010B   23032.91667824 -.00836876  00000-0 -50392-2 0  9999,2 55270  70.0002  31.4174 0003511 271.0036 203.1826 15.79584415  2608,6709.754,91.163,333.975,329.263,0.0
55270.0,STARLINK-5301,PAYLOAD,2023-02-02 14:00:01,15.78390361,0.000354,69.9992,29.5167,264.776,37.8039,-0.0053313,-0.00838509,0.0,0 STARLINK-5301,1 55270U 23010B   23033.58334491 -.00838509  00000-0 -53313-2 0  9995,2 55270  69.9992  29.5167 0003540 264.7760  37.8039 15.78390361  1306,6713.138,91.232,337.379,332.626,0.0
55270.0,STARLINK-5301,PAYLOAD,2023-02-03 02:00:01,15.77517224,0.0003717,69.9995,28.0937,258.471,3.51,-0.005765,-0.00868798,0.0,0 STARLINK-5301,1 55270U 23010B   23034.08334491 -.00868798  00000-0 -57650-2 0  9992,2 55270  69.9995  28.0937 0003717 258.4710   3.5100 15.77517224  2790,6715.615,91.283,339.976,334.983,0.0
55270.0,STARLINK-5301,PAYLOAD,2023-02-03 14:00:01,15.76605269,0.0003525,69.9991,26.6732,264.0551,315.7343,-0.005866,-0.0085054,0.0,0 STARLINK-5301,1 55270U 23010B   23034.58334491 -.00850540  00000-0 -58660-2 0  9995,2 55270  69.9991  26.6732 0003525 264.0551 315.7343 15.76605269  1305,6718.204,91.335,342.437,337.701,0.0
55270.0,STARLINK-5301,PAYLOAD,2023-02-03 22:00:00,15.75990238,0.0003562,69.9998,25.7276,264.0017,46.7656,-0.0058394,-0.00826331,0.0,0 STARLINK-5301,1 55270U 23010B   23034.91667824 -.00826331  00000-0 -58394-2 0  9996,2 55270  69.9998  25.7276 0003562 264.0017  46.7656 15.75990238  1303,6719.952,91.371,344.21,339.423,0.0
